ADRAS-J                 
1 58992U 24034A   24290.20228517  .00007990  00000+0  70609-3 0  9999
2 58992  98.2257 268.9523 0043315  12.6888 347.5411 14.95909440 35943
